{"type": "FeatureCollection", "features": [ {"type": "Feature", "properties": {"norad_id": 67143, "name": "KUIPER-00191", "group": "last-30-days", "lat": -6.194608781571976, "lon": 51.06188886409874, "alt_km": 465.471618132874, "timestamp": "2025-12-27T02:10:14.911539+00:00", "meta": {"OBJECT_NAME": "KUIPER-00191", "OBJECT_ID": "2025-301L", "EPOCH": "2025-12-26T18:23:36.698208", "MEAN_MOTION": 15.35195716, "ECCENTRICITY": 0.0006685, "INCLINATION": 51.8676, "RA_OF_ASC_NODE": 57.5158, "ARG_OF_PERICENTER": 134.41, "MEAN_ANOMALY": 225.7433, "EPHEMERIS_TYPE": 0, "CLASSIFICATION_TYPE": "U", "NORAD_CAT_ID": 67143, "ELEMENT_SET_NO": 999, "REV_AT_EPOCH": 255, "BSTAR": 0.00095155, "MEAN_MOTION_DOT": 0.00032788, "MEAN_MOTION_DDOT": 0}, "tle": {"line1": "1 67143U 25301L   25360.76639697  .00032788  00000+0  95155-3 0  9996", "line2": "2 67143  51.8676  57.5158 0006685 134.4100 225.7433 15.35195716  2556"}}, "geometry": {"type": "Point", "coordinates": [51.06188886409874, -6.194608781571976]}}, {"type": "Feature", "properties": {"norad_id": 67144, "name": "KUIPER-00196", "group": "last-30-days", "lat": 20.81779333198436, "lon": 73.25321402085272, "alt_km": 454.7327202122933, "timestamp": "2025-12-27T02:10:14.911549+00:00", "meta": {"OBJECT_NAME": "KUIPER-00196", "OBJECT_ID": "2025-301M", "EPOCH": "2025-12-26T15:07:27.812928", "MEAN_MOTION": 15.36065728, "ECCENTRICITY": 0.0003949, "INCLINATION": 51.8732, "RA_OF_ASC_NODE": 58.1001, "ARG_OF_PERICENTER": 101.5114, "MEAN_ANOMALY": 258.6316, "EPHEMERIS_TYPE": 0, "CLASSIFICATION_TYPE": "U", "NORAD_CAT_ID": 67144, "ELEMENT_SET_NO": 999, "REV_AT_EPOCH": 250, "BSTAR": 0.00080514, "MEAN_MOTION_DOT": 0.00028446, "MEAN_MOTION_DDOT": 0}, "tle": {"line1": "1 67144U 25301M   25360.63018302  .00028446  00000+0  80514-3 0  9996", "line2": "2 67144  51.8732  58.1001 0003949 101.5114 258.6316 15.36065728  2504"}}, "geometry": {"type": "Point", "coordinates": [73.25321402085272, 20.81779333198436]}}, {"type": "Feature", "properties": {"norad_id": 67145, "name": "KUIPER-00204", "group": "last-30-days", "lat": 34.98066879800097, "lon": 89.16321573685647, "alt_km": 450.4295373654513, "timestamp": "2025-12-27T02:10:14.911559+00:00", "meta": {"OBJECT_NAME": "KUIPER-00204", "OBJECT_ID": "2025-301N", "EPOCH": "2025-12-26T19:43:28.139808", "MEAN_MOTION": 15.3658141, "ECCENTRICITY": 0.0001984, "INCLINATION": 51.8752, "RA_OF_ASC_NODE": 57.1271, "ARG_OF_PERICENTER": 76.7386, "MEAN_ANOMALY": 283.3821, "EPHEMERIS_TYPE": 0, "CLASSIFICATION_TYPE": "U", "NORAD_CAT_ID": 67145, "ELEMENT_SET_NO": 999, "REV_AT_EPOCH": 264, "BSTAR": 0.00092439, "MEAN_MOTION_DOT": 0.00033285, "MEAN_MOTION_DDOT": 0}, "tle": {"line1": "1 67145U 25301N   25360.82185347  .00033285  00000+0  92439-3 0  9998", "line2": "2 67145  51.8752  57.1271 0001984  76.7386 283.3821 15.36581410  2648"}}, "geometry": {"type": "Point", "coordinates": [89.16321573685647, 34.98066879800097]}}, {"type": "Feature", "properties": {"norad_id": 67146, "name": "KUIPER-00210", "group": "last-30-days", "lat": -35.133659583308685, "lon": 22.461302815051226, "alt_km": 474.028730859005, "timestamp": "2025-12-27T02:10:14.911569+00:00", "meta": {"OBJECT_NAME": "KUIPER-00210", "OBJECT_ID": "2025-301P", "EPOCH": "2025-12-26T18:33:32.598144", "MEAN_MOTION": 15.34205466, "ECCENTRICITY": 0.0010587, "INCLINATION": 51.8604, "RA_OF_ASC_NODE": 57.5575, "ARG_OF_PERICENTER": 151.9201, "MEAN_ANOMALY": 208.2357, "EPHEMERIS_TYPE": 0, "CLASSIFICATION_TYPE": "U", "NORAD_CAT_ID": 67146, "ELEMENT_SET_NO": 999, "REV_AT_EPOCH": 269, "BSTAR": 0.00085165, "MEAN_MOTION_DOT": 0.000284, "MEAN_MOTION_DDOT": 0}, "tle": {"line1": "1 67146U 25301P   25360.77329396  .00028400  00000+0  85165-3 0  9998", "line2": "2 67146  51.8604  57.5575 0010587 151.9201 208.2357 15.34205466  2694"}}, "geometry": {"type": "Point", "coordinates": [22.461302815051226, -35.133659583308685]}}, {"type": "Feature", "properties": {"norad_id": 67147, "name": "KUIPER-00221", "group": "last-30-days", "lat": 11.280855279582978, "lon": 64.9190260609322, "alt_km": 458.4777578314761, "timestamp": "2025-12-27T02:10:14.911579+00:00", "meta": {"OBJECT_NAME": "KUIPER-00221", "OBJECT_ID": "2025-301Q", "EPOCH": "2025-12-26T15:10:34.099968", "MEAN_MOTION": 15.35755171, "ECCENTRICITY": 0.0005019, "INCLINATION": 51.8722, "RA_OF_ASC_NODE": 58.1159, "ARG_OF_PERICENTER": 114.3031, "MEAN_ANOMALY": 245.848, "EPHEMERIS_TYPE": 0, "CLASSIFICATION_TYPE": "U", "NORAD_CAT_ID": 67147, "ELEMENT_SET_NO": 999, "REV_AT_EPOCH": 250, "BSTAR": 0.00057628, "MEAN_MOTION_DOT": 0.00020027, "MEAN_MOTION_DDOT": 0}, "tle": {"line1": "1 67147U 25301Q   25360.63233912  .00020027  00000+0  57628-3 0  9992", "line2": "2 67147  51.8722  58.1159 0005019 114.3031 245.8480 15.35755171  2507"}}, "geometry": {"type": "Point", "coordinates": [64.9190260609322, 11.280855279582978]}}, {"type": "Feature", "properties": {"norad_id": 67148, "name": "KUIPER-00232", "group": "last-30-days", "lat": 39.240921225259314, "lon": 95.72159586984786, "alt_km": 449.4395057160691, "timestamp": "2025-12-27T02:10:14.911591+00:00", "meta": {"OBJECT_NAME": "KUIPER-00232", "OBJECT_ID": "2025-301R", "EPOCH": "2025-12-26T19:41:45.336768", "MEAN_MOTION": 15.36734624, "ECCENTRICITY": 0.00015, "INCLINATION": 51.875, "RA_OF_ASC_NODE": 57.1247, "ARG_OF_PERICENTER": 52.9877, "MEAN_ANOMALY": 307.1247, "EPHEMERIS_TYPE": 0, "CLASSIFICATION_TYPE": "U", "NORAD_CAT_ID": 67148, "ELEMENT_SET_NO": 999, "REV_AT_EPOCH": 253, "BSTAR": 0.000954, "MEAN_MOTION_DOT": 0.0003454, "MEAN_MOTION_DDOT": 0}, "tle": {"line1": "1 67148U 25301R   25360.82066362  .00034540  00000+0  95400-3 0  9992", "line2": "2 67148  51.8750  57.1247 0001500  52.9877 307.1247 15.36734624  2539"}}, "geometry": {"type": "Point", "coordinates": [95.72159586984786, 39.240921225259314]}}, {"type": "Feature", "properties": {"norad_id": 67149, "name": "KUIPER-00241", "group": "last-30-days", "lat": 26.86790457463727, "lon": 79.3038775439742, "alt_km": 453.01007898738044, "timestamp": "2025-12-27T02:10:14.911601+00:00", "meta": {"OBJECT_NAME": "KUIPER-00241", "OBJECT_ID": "2025-301S", "EPOCH": "2025-12-26T16:39:05.730912", "MEAN_MOTION": 15.36284193, "ECCENTRICITY": 0.0002971, "INCLINATION": 51.8741, "RA_OF_ASC_NODE": 57.7727, "ARG_OF_PERICENTER": 101.8633, "MEAN_ANOMALY": 258.2686, "EPHEMERIS_TYPE": 0, "CLASSIFICATION_TYPE": "U", "NORAD_CAT_ID": 67149, "ELEMENT_SET_NO": 999, "REV_AT_EPOCH": 284, "BSTAR": 0.00081377, "MEAN_MOTION_DOT": 0.00028959, "MEAN_MOTION_DDOT": 0}, "tle": {"line1": "1 67149U 25301S   25360.69381633  .00028959  00000+0  81377-3 0  9994", "line2": "2 67149  51.8741  57.7727 0002971 101.8633 258.2686 15.36284193  2844"}}, "geometry": {"type": "Point", "coordinates": [79.3038775439742, 26.86790457463727]}}, {"type": "Feature", "properties": {"norad_id": 67150, "name": "KUIPER-00245", "group": "last-30-days", "lat": 8.473364547941225, "lon": 62.63063498821353, "alt_km": 459.86446776499633, "timestamp": "2025-12-27T02:10:14.911611+00:00", "meta": {"OBJECT_NAME": "KUIPER-00245", "OBJECT_ID": "2025-301T", "EPOCH": "2025-12-26T15:11:27.858912", "MEAN_MOTION": 15.35659116, "ECCENTRICITY": 0.0005014, "INCLINATION": 51.8728, "RA_OF_ASC_NODE": 58.1185, "ARG_OF_PERICENTER": 122.7078, "MEAN_ANOMALY": 237.4392, "EPHEMERIS_TYPE": 0, "CLASSIFICATION_TYPE": "U", "NORAD_CAT_ID": 67150, "ELEMENT_SET_NO": 999, "REV_AT_EPOCH": 250, "BSTAR": 0.0005365, "MEAN_MOTION_DOT": 0.00018556, "MEAN_MOTION_DDOT": 0}, "tle": {"line1": "1 67150U 25301T   25360.63296133  .00018556  00000+0  53650-3 0  9995", "line2": "2 67150  51.8728  58.1185 0005014 122.7078 237.4392 15.35659116  2506"}}, "geometry": {"type": "Point", "coordinates": [62.63063498821353, 8.473364547941225]}}, {"type": "Feature", "properties": {"norad_id": 67151, "name": "KUIPER-00246", "group": "last-30-days", "lat": 18.185603743794815, "lon": 70.83539027183392, "alt_km": 456.4365662573746, "timestamp": "2025-12-27T02:10:14.911621+00:00", "meta": {"OBJECT_NAME": "KUIPER-00246", "OBJECT_ID": "2025-301U", "EPOCH": "2025-12-26T15:08:18.585888", "MEAN_MOTION": 15.35931631, "ECCENTRICITY": 0.0003975, "INCLINATION": 51.8739, "RA_OF_ASC_NODE": 58.1025, "ARG_OF_PERICENTER": 116.7856, "MEAN_ANOMALY": 243.3537, "EPHEMERIS_TYPE": 0, "CLASSIFICATION_TYPE": "U", "NORAD_CAT_ID": 67151, "ELEMENT_SET_NO": 999, "REV_AT_EPOCH": 252, "BSTAR": 0.00069659, "MEAN_MOTION_DOT": 0.00024439, "MEAN_MOTION_DDOT": 0}, "tle": {"line1": "1 67151U 25301U   25360.63077067  .00024439  00000+0  69659-3 0  9992", "line2": "2 67151  51.8739  58.1025 0003975 116.7856 243.3537 15.35931631  2527"}}, "geometry": {"type": "Point", "coordinates": [70.83539027183392, 18.185603743794815]}}, {"type": "Feature", "properties": {"norad_id": 67152, "name": "KUIPER-00247", "group": "last-30-days", "lat": -39.49497288309976, "lon": 15.68734132668837, "alt_km": 474.61817150085426, "timestamp": "2025-12-27T02:10:14.911634+00:00", "meta": {"OBJECT_NAME": "KUIPER-00247", "OBJECT_ID": "2025-301V", "EPOCH": "2025-12-26T15:27:40.931136", "MEAN_MOTION": 15.34015344, "ECCENTRICITY": 0.0011231, "INCLINATION": 51.8629, "RA_OF_ASC_NODE": 58.1938, "ARG_OF_PERICENTER": 154.7768, "MEAN_ANOMALY": 205.3768, "EPHEMERIS_TYPE": 0, "CLASSIFICATION_TYPE": "U", "NORAD_CAT_ID": 67152, "ELEMENT_SET_NO": 999, "REV_AT_EPOCH": 250, "BSTAR": 0.00084978, "MEAN_MOTION_DOT": 0.00028169, "MEAN_MOTION_DDOT": 0}, "tle": {"line1": "1 67152U 25301V   25360.64422374  .00028169  00000+0  84978-3 0  9994", "line2": "2 67152  51.8629  58.1938 0011231 154.7768 205.3768 15.34015344  2502"}}, "geometry": {"type": "Point", "coordinates": [15.68734132668837, -39.49497288309976]}}]}